IRIDIUM 166             
1 43570U 18061B   24251.77338493  .00001170  00000+0  41076-3 0  9992
2 43570  86.4004 327.3092 0001943  94.7946 265.3472 14.34216235320606
IRIDIUM 165             
1 43572U 18061D   24251.69729234  .00000052  00000+0  11635-4 0  9999
2 43572  86.4003 327.3845 0002063  98.3212 261.8217 14.34215792320585
IRIDIUM 155             
1 43573U 18061E   24251.72900939  .00000720  00000+0  25017-3 0  9997
2 43573  86.4001 327.2728 0001916  92.5884 267.5531 14.34217811320553
IRIDIUM 154             
1 43574U 18061F   24251.64021335  .00000188  00000+0  59913-4 0  9994
2 43574  86.4007 327.4114 0002346  90.5685 269.5780 14.34218651320591
IRIDIUM 163             
1 43575U 18061G   24251.83048974  .00000243  00000+0  79882-4 0  9993
2 43575  86.4002 327.2676 0002079  92.4735 267.6699 14.34216205320599
IRIDIUM 156             
1 43576U 18061H   24251.73535087 -.00000014  00000+0 -12090-4 0  9995
2 43576  86.4002 327.3136 0001885 100.8738 259.2670 14.34215477320577
